{"type": "FeatureCollection", "features": [ {"type": "Feature", "properties": {"norad_id": 34001, "name": "COSMOS 2251 DEB", "group": "cosmos-2251-debris", "lat": 36.99023307520114, "lon": -54.14530204607594, "alt_km": 752.2271733376265, "timestamp": "2025-12-06T07:31:40.629055+00:00", "meta": {"OBJECT_NAME": "COSMOS 2251 DEB", "OBJECT_ID": "1993-036GL", "EPOCH": "2025-12-05T06:51:10.177344", "MEAN_MOTION": 14.3708295, "ECCENTRICITY": 0.00196081, "INCLINATION": 74.0384, "RA_OF_ASC_NODE": 295.294, "ARG_OF_PERICENTER": 18.084, "MEAN_ANOMALY": 103.7637, "EPHEMERIS_TYPE": 0, "CLASSIFICATION_TYPE": "U", "NORAD_CAT_ID": 34001, "ELEMENT_SET_NO": 999, "REV_AT_EPOCH": 88039, "BSTAR": 0.00038555748, "MEAN_MOTION_DOT": 1.121e-05, "MEAN_MOTION_DDOT": 0}, "tle": {"line1": "1 34001U 93036GL  25339.28553446  .00001121  00000+0  38556-3 0  9992", "line2": "2 34001  74.0384 295.2940 0019608  18.0840 103.7637 14.37082950880396"}}, "geometry": {"type": "Point", "coordinates": [-54.14530204607594, 36.99023307520114]}}, {"type": "Feature", "properties": {"norad_id": 34003, "name": "COSMOS 2251 DEB", "group": "cosmos-2251-debris", "lat": 65.75798541507231, "lon": -24.701920127501214, "alt_km": 755.929501986092, "timestamp": "2025-12-06T07:31:40.629065+00:00", "meta": {"OBJECT_NAME": "COSMOS 2251 DEB", "OBJECT_ID": "1993-036GN", "EPOCH": "2025-12-05T06:54:57.136320", "MEAN_MOTION": 13.84083935, "ECCENTRICITY": 0.02737403, "INCLINATION": 74.0783, "RA_OF_ASC_NODE": 297.6851, "ARG_OF_PERICENTER": 51.4486, "MEAN_ANOMALY": 311.0828, "EPHEMERIS_TYPE": 0, "CLASSIFICATION_TYPE": "U", "NORAD_CAT_ID": 34003, "ELEMENT_SET_NO": 999, "REV_AT_EPOCH": 84322, "BSTAR": 0.0033221618, "MEAN_MOTION_DOT": 4.923e-05, "MEAN_MOTION_DDOT": 0}, "tle": {"line1": "1 34003U 93036GN  25339.28816130  .00004923  00000+0  33222-2 0  9993", "line2": "2 34003  74.0783 297.6851 0273740  51.4486 311.0828 13.84083935843226"}}, "geometry": {"type": "Point", "coordinates": [-24.701920127501214, 65.75798541507231]}}, {"type": "Feature", "properties": {"norad_id": 34004, "name": "COSMOS 2251 DEB", "group": "cosmos-2251-debris", "lat": 10.101857840985755, "lon": -31.915843860234848, "alt_km": 710.5987582338412, "timestamp": "2025-12-06T07:31:40.629075+00:00", "meta": {"OBJECT_NAME": "COSMOS 2251 DEB", "OBJECT_ID": "1993-036GP", "EPOCH": "2025-12-04T00:47:42.970272", "MEAN_MOTION": 14.48867664, "ECCENTRICITY": 0.0033078, "INCLINATION": 74.0351, "RA_OF_ASC_NODE": 329.434, "ARG_OF_PERICENTER": 342.8249, "MEAN_ANOMALY": 17.1788, "EPHEMERIS_TYPE": 0, "CLASSIFICATION_TYPE": "U", "NORAD_CAT_ID": 34004, "ELEMENT_SET_NO": 999, "REV_AT_EPOCH": 87904, "BSTAR": 0.0027329388, "MEAN_MOTION_DOT": 0.00010395, "MEAN_MOTION_DDOT": 0}, "tle": {"line1": "1 34004U 93036GP  25338.03313623  .00010395  00000+0  27329-2 0  9996", "line2": "2 34004  74.0351 329.4340 0033078 342.8249  17.1788 14.48867664879045"}}, "geometry": {"type": "Point", "coordinates": [-31.915843860234848, 10.101857840985755]}}, {"type": "Feature", "properties": {"norad_id": 34005, "name": "COSMOS 2251 DEB", "group": "cosmos-2251-debris", "lat": 52.495500339232365, "lon": 23.633681020359997, "alt_km": 763.402837915818, "timestamp": "2025-12-06T07:31:40.629085+00:00", "meta": {"OBJECT_NAME": "COSMOS 2251 DEB", "OBJECT_ID": "1993-036GQ", "EPOCH": "2025-12-05T03:09:13.359168", "MEAN_MOTION": 14.40295917, "ECCENTRICITY": 0.00205518, "INCLINATION": 74.0451, "RA_OF_ASC_NODE": 227.7034, "ARG_OF_PERICENTER": 347.2897, "MEAN_ANOMALY": 129.2733, "EPHEMERIS_TYPE": 0, "CLASSIFICATION_TYPE": "U", "NORAD_CAT_ID": 34005, "ELEMENT_SET_NO": 999, "REV_AT_EPOCH": 88269, "BSTAR": 0.00022285746, "MEAN_MOTION_DOT": 6.81e-06, "MEAN_MOTION_DDOT": 0}, "tle": {"line1": "1 34005U 93036GQ  25339.13140462  .00000681  00000+0  22286-3 0  9993", "line2": "2 34005  74.0451 227.7034 0020551 347.2897 129.2733 14.40295917882695"}}, "geometry": {"type": "Point", "coordinates": [23.633681020359997, 52.495500339232365]}}, {"type": "Feature", "properties": {"norad_id": 34006, "name": "COSMOS 2251 DEB", "group": "cosmos-2251-debris", "lat": -37.737705571140815, "lon": -10.994642556839905, "alt_km": 593.8984423109141, "timestamp": "2025-12-06T07:31:40.629095+00:00", "meta": {"OBJECT_NAME": "COSMOS 2251 DEB", "OBJECT_ID": "1993-036GR", "EPOCH": "2025-12-04T14:39:52.591968", "MEAN_MOTION": 14.93859238, "ECCENTRICITY": 0.0012083, "INCLINATION": 74.0532, "RA_OF_ASC_NODE": 159.643, "ARG_OF_PERICENTER": 115.1728, "MEAN_ANOMALY": 310.7171, "EPHEMERIS_TYPE": 0, "CLASSIFICATION_TYPE": "U", "NORAD_CAT_ID": 34006, "ELEMENT_SET_NO": 999, "REV_AT_EPOCH": 88547, "BSTAR": 0.0062185, "MEAN_MOTION_DOT": 0.00066767, "MEAN_MOTION_DDOT": 0}, "tle": {"line1": "1 34006U 93036GR  25338.61102537  .00066767  00000+0  62185-2 0  9995", "line2": "2 34006  74.0532 159.6430 0012083 115.1728 310.7171 14.93859238885477"}}, "geometry": {"type": "Point", "coordinates": [-10.994642556839905, -37.737705571140815]}}, {"type": "Feature", "properties": {"norad_id": 34007, "name": "COSMOS 2251 DEB", "group": "cosmos-2251-debris", "lat": 54.824800015865506, "lon": 155.27572784006256, "alt_km": 641.8972472349651, "timestamp": "2025-12-06T07:31:40.629105+00:00", "meta": {"OBJECT_NAME": "COSMOS 2251 DEB", "OBJECT_ID": "1993-036GS", "EPOCH": "2025-12-05T03:06:30.740544", "MEAN_MOTION": 14.64705069, "ECCENTRICITY": 0.00446768, "INCLINATION": 74.0196, "RA_OF_ASC_NODE": 1.5455, "ARG_OF_PERICENTER": 138.8829, "MEAN_ANOMALY": 221.5721, "EPHEMERIS_TYPE": 0, "CLASSIFICATION_TYPE": "U", "NORAD_CAT_ID": 34007, "ELEMENT_SET_NO": 999, "REV_AT_EPOCH": 88968, "BSTAR": 0.001468398, "MEAN_MOTION_DOT": 7.91e-05, "MEAN_MOTION_DDOT": 0}, "tle": {"line1": "1 34007U 93036GS  25339.12952246  .00007910  00000+0  14684-2 0  9999", "line2": "2 34007  74.0196   1.5455 0044676 138.8829 221.5721 14.64705069889680"}}, "geometry": {"type": "Point", "coordinates": [155.27572784006256, 54.824800015865506]}}, {"type": "Feature", "properties": {"norad_id": 34008, "name": "COSMOS 2251 DEB", "group": "cosmos-2251-debris", "lat": -15.732726508054258, "lon": 166.8898875595669, "alt_km": 799.292351919572, "timestamp": "2025-12-06T07:31:40.629116+00:00", "meta": {"OBJECT_NAME": "COSMOS 2251 DEB", "OBJECT_ID": "1993-036GT", "EPOCH": "2025-12-05T04:09:31.913856", "MEAN_MOTION": 14.3313793, "ECCENTRICITY": 0.00240407, "INCLINATION": 74.0342, "RA_OF_ASC_NODE": 344.3473, "ARG_OF_PERICENTER": 341.039, "MEAN_ANOMALY": 94.2031, "EPHEMERIS_TYPE": 0, "CLASSIFICATION_TYPE": "U", "NORAD_CAT_ID": 34008, "ELEMENT_SET_NO": 999, "REV_AT_EPOCH": 87856, "BSTAR": 0.00021432921, "MEAN_MOTION_DOT": 5.64e-06, "MEAN_MOTION_DDOT": 0}, "tle": {"line1": "1 34008U 93036GT  25339.17328604  .00000564  00000+0  21433-3 0  9999", "line2": "2 34008  74.0342 344.3473 0024040 341.0390  94.2031 14.33137930878562"}}, "geometry": {"type": "Point", "coordinates": [166.8898875595669, -15.732726508054258]}}, {"type": "Feature", "properties": {"norad_id": 34009, "name": "COSMOS 2251 DEB", "group": "cosmos-2251-debris", "lat": -48.14355623517054, "lon": -172.68596628437538, "alt_km": 806.0370311028855, "timestamp": "2025-12-06T07:31:40.629126+00:00", "meta": {"OBJECT_NAME": "COSMOS 2251 DEB", "OBJECT_ID": "1993-036GU", "EPOCH": "2025-12-05T03:58:47.620416", "MEAN_MOTION": 14.33213252, "ECCENTRICITY": 0.00262958, "INCLINATION": 74.0372, "RA_OF_ASC_NODE": 350.7784, "ARG_OF_PERICENTER": 62.839, "MEAN_ANOMALY": 7.8481, "EPHEMERIS_TYPE": 0, "CLASSIFICATION_TYPE": "U", "NORAD_CAT_ID": 34009, "ELEMENT_SET_NO": 999, "REV_AT_EPOCH": 87837, "BSTAR": 0.00025159561, "MEAN_MOTION_DOT": 6.68e-06, "MEAN_MOTION_DDOT": 0}, "tle": {"line1": "1 34009U 93036GU  25339.16582894  .00000668  00000+0  25160-3 0  9998", "line2": "2 34009  74.0372 350.7784 0026295  62.8390   7.8481 14.33213252878374"}}, "geometry": {"type": "Point", "coordinates": [-172.68596628437538, -48.14355623517054]}}, {"type": "Feature", "properties": {"norad_id": 34010, "name": "COSMOS 2251 DEB", "group": "cosmos-2251-debris", "lat": -49.57786534465082, "lon": -82.92158759762059, "alt_km": 522.4074756647915, "timestamp": "2025-12-06T07:31:40.629137+00:00", "meta": {"OBJECT_NAME": "COSMOS 2251 DEB", "OBJECT_ID": "1993-036GV", "EPOCH": "2025-12-05T06:25:56.675712", "MEAN_MOTION": 15.16741979, "ECCENTRICITY": 0.00044589, "INCLINATION": 74.0005, "RA_OF_ASC_NODE": 298.9506, "ARG_OF_PERICENTER": 59.79, "MEAN_ANOMALY": 300.3737, "EPHEMERIS_TYPE": 0, "CLASSIFICATION_TYPE": "U", "NORAD_CAT_ID": 34010, "ELEMENT_SET_NO": 999, "REV_AT_EPOCH": 89172, "BSTAR": 0.0068904481, "MEAN_MOTION_DOT": 0.00137811, "MEAN_MOTION_DDOT": 0}, "tle": {"line1": "1 34010U 93036GV  25339.26801708  .00137811  00000+0  68904-2 0  9992", "line2": "2 34010  74.0005 298.9506 0004458  59.7900 300.3737 15.16741979891726"}}, "geometry": {"type": "Point", "coordinates": [-82.92158759762059, -49.57786534465082]}}, {"type": "Feature", "properties": {"norad_id": 34011, "name": "COSMOS 2251 DEB", "group": "cosmos-2251-debris", "lat": 36.830053600969066, "lon": -5.527814685372527, "alt_km": 727.8927236118889, "timestamp": "2025-12-06T07:31:40.629147+00:00", "meta": {"OBJECT_NAME": "COSMOS 2251 DEB", "OBJECT_ID": "1993-036GW", "EPOCH": "2025-12-04T10:23:09.489408", "MEAN_MOTION": 14.41708458, "ECCENTRICITY": 0.0035219, "INCLINATION": 74.0144, "RA_OF_ASC_NODE": 345.5636, "ARG_OF_PERICENTER": 71.8792, "MEAN_ANOMALY": 288.6195, "EPHEMERIS_TYPE": 0, "CLASSIFICATION_TYPE": "U", "NORAD_CAT_ID": 34011, "ELEMENT_SET_NO": 999, "REV_AT_EPOCH": 87796, "BSTAR": 0.0015576, "MEAN_MOTION_DOT": 5.095e-05, "MEAN_MOTION_DDOT": 0}, "tle": {"line1": "1 34011U 93036GW  25338.43274872  .00005095  00000+0  15576-2 0  9992", "line2": "2 34011  74.0144 345.5636 0035219  71.8792 288.6195 14.41708458877965"}}, "geometry": {"type": "Point", "coordinates": [-5.527814685372527, 36.830053600969066]}}]}